{"type": "FeatureCollection", "features": [ {"type": "Feature", "properties": {"norad_id": 38755, "name": "SPOT 6", "group": "resource", "lat": 18.278827255973376, "lon": -129.03121412368537, "alt_km": 697.7028359171272, "timestamp": "2025-12-09T09:46:47.303923+00:00", "meta": {"OBJECT_NAME": "SPOT 6", "OBJECT_ID": "2012-047A", "EPOCH": "2025-12-09T04:06:11.062368", "MEAN_MOTION": 14.58597899, "ECCENTRICITY": 0.0001074, "INCLINATION": 98.1574, "RA_OF_ASC_NODE": 48.021, "ARG_OF_PERICENTER": 98.1837, "MEAN_ANOMALY": 261.9484, "EPHEMERIS_TYPE": 0, "CLASSIFICATION_TYPE": "U", "NORAD_CAT_ID": 38755, "ELEMENT_SET_NO": 999, "REV_AT_EPOCH": 70535, "BSTAR": 0.00012839, "MEAN_MOTION_DOT": 5.52e-06, "MEAN_MOTION_DDOT": 0}, "tle": {"line1": "1 38755U 12047A   25343.17096137  .00000552  00000+0  12839-3 0  9990", "line2": "2 38755  98.1574  48.0210 0001074  98.1837 261.9484 14.58597899705356"}}, "geometry": {"type": "Point", "coordinates": [-129.03121412368537, 18.278827255973376]}}, {"type": "Feature", "properties": {"norad_id": 39019, "name": "PLEIADES 1B", "group": "resource", "lat": 59.488105768081226, "lon": 41.98507084349117, "alt_km": 691.2912687725138, "timestamp": "2025-12-09T09:46:47.303934+00:00", "meta": {"OBJECT_NAME": "PLEIADES 1B", "OBJECT_ID": "2012-068A", "EPOCH": "2025-12-09T04:33:50.727744", "MEAN_MOTION": 14.58547353, "ECCENTRICITY": 0.0001223, "INCLINATION": 98.1796, "RA_OF_ASC_NODE": 55.8978, "ARG_OF_PERICENTER": 82.1426, "MEAN_ANOMALY": 277.9912, "EPHEMERIS_TYPE": 0, "CLASSIFICATION_TYPE": "U", "NORAD_CAT_ID": 39019, "ELEMENT_SET_NO": 999, "REV_AT_EPOCH": 69315, "BSTAR": 0.00012505, "MEAN_MOTION_DOT": 5.36e-06, "MEAN_MOTION_DDOT": 0}, "tle": {"line1": "1 39019U 12068A   25343.19017046  .00000536  00000+0  12505-3 0  9993", "line2": "2 39019  98.1796  55.8978 0001223  82.1426 277.9912 14.58547353693153"}}, "geometry": {"type": "Point", "coordinates": [41.98507084349117, 59.488105768081226]}}, {"type": "Feature", "properties": {"norad_id": 39030, "name": "GOKTURK 2", "group": "resource", "lat": 73.63286739467306, "lon": 157.8373032079096, "alt_km": 636.618114413307, "timestamp": "2025-12-09T09:46:47.303945+00:00", "meta": {"OBJECT_NAME": "GOKTURK 2", "OBJECT_ID": "2012-073A", "EPOCH": "2025-12-09T04:33:19.553760", "MEAN_MOTION": 14.75282788, "ECCENTRICITY": 9.12e-05, "INCLINATION": 97.6889, "RA_OF_ASC_NODE": 185.0175, "ARG_OF_PERICENTER": 98.0088, "MEAN_ANOMALY": 262.1226, "EPHEMERIS_TYPE": 0, "CLASSIFICATION_TYPE": "U", "NORAD_CAT_ID": 39030, "ELEMENT_SET_NO": 999, "REV_AT_EPOCH": 69649, "BSTAR": 0.00013609, "MEAN_MOTION_DOT": 8.74e-06, "MEAN_MOTION_DDOT": 0}, "tle": {"line1": "1 39030U 12073A   25343.18980965  .00000874  00000+0  13609-3 0  9991", "line2": "2 39030  97.6889 185.0175 0000912  98.0088 262.1226 14.75282788696493"}}, "geometry": {"type": "Point", "coordinates": [157.8373032079096, 73.63286739467306]}}, {"type": "Feature", "properties": {"norad_id": 39084, "name": "LANDSAT 8", "group": "resource", "lat": -66.47391010206545, "lon": -147.83157478619881, "alt_km": 710.5138330184609, "timestamp": "2025-12-09T09:46:47.303956+00:00", "meta": {"OBJECT_NAME": "LANDSAT 8", "OBJECT_ID": "2013-008A", "EPOCH": "2025-12-08T22:45:26.798112", "MEAN_MOTION": 14.57107885, "ECCENTRICITY": 0.00011207, "INCLINATION": 98.2076, "RA_OF_ASC_NODE": 51.0776, "ARG_OF_PERICENTER": 87.1267, "MEAN_ANOMALY": 273.006, "EPHEMERIS_TYPE": 0, "CLASSIFICATION_TYPE": "U", "NORAD_CAT_ID": 39084, "ELEMENT_SET_NO": 999, "REV_AT_EPOCH": 67019, "BSTAR": 0.00015671887, "MEAN_MOTION_DOT": 6.61e-06, "MEAN_MOTION_DDOT": 0}, "tle": {"line1": "1 39084U 13008A   25342.94822683  .00000661  00000+0  15672-3 0  9990", "line2": "2 39084  98.2076  51.0776 0001120  87.1267 273.0060 14.57107885670196"}}, "geometry": {"type": "Point", "coordinates": [-147.83157478619881, -66.47391010206545]}}, {"type": "Feature", "properties": {"norad_id": 39086, "name": "SARAL", "group": "resource", "lat": 14.50510844091823, "lon": -10.388083812123796, "alt_km": 782.1383693404814, "timestamp": "2025-12-09T09:46:47.303967+00:00", "meta": {"OBJECT_NAME": "SARAL", "OBJECT_ID": "2013-009A", "EPOCH": "2025-12-08T22:57:18.285696", "MEAN_MOTION": 14.32754907, "ECCENTRICITY": 0.00027903, "INCLINATION": 98.5504, "RA_OF_ASC_NODE": 166.9363, "ARG_OF_PERICENTER": 115.9444, "MEAN_ANOMALY": 244.2027, "EPHEMERIS_TYPE": 0, "CLASSIFICATION_TYPE": "U", "NORAD_CAT_ID": 39086, "ELEMENT_SET_NO": 999, "REV_AT_EPOCH": 66836, "BSTAR": 8.8706904e-05, "MEAN_MOTION_DOT": 1.98e-06, "MEAN_MOTION_DDOT": 0}, "tle": {"line1": "1 39086U 13009A   25342.95646164  .00000198  00000+0  88707-4 0  9997", "line2": "2 39086  98.5504 166.9363 0002790 115.9444 244.2027 14.32754907668361"}}, "geometry": {"type": "Point", "coordinates": [-10.388083812123796, 14.50510844091823]}}, {"type": "Feature", "properties": {"norad_id": 39150, "name": "GAOFEN-1", "group": "resource", "lat": 40.857795555648266, "lon": -118.94725062237562, "alt_km": 624.8831375335985, "timestamp": "2025-12-09T09:46:47.303977+00:00", "meta": {"OBJECT_NAME": "GAOFEN-1", "OBJECT_ID": "2013-018A", "EPOCH": "2025-12-09T04:16:30.673920", "MEAN_MOTION": 14.76525386, "ECCENTRICITY": 0.0017984, "INCLINATION": 97.9329, "RA_OF_ASC_NODE": 53.9003, "ARG_OF_PERICENTER": 154.0792, "MEAN_ANOMALY": 206.1322, "EPHEMERIS_TYPE": 0, "CLASSIFICATION_TYPE": "U", "NORAD_CAT_ID": 39150, "ELEMENT_SET_NO": 999, "REV_AT_EPOCH": 68020, "BSTAR": 0.0002191, "MEAN_MOTION_DOT": 1.48e-05, "MEAN_MOTION_DDOT": 0}, "tle": {"line1": "1 39150U 13018A   25343.17813280  .00001480  00000+0  21910-3 0  9996", "line2": "2 39150  97.9329  53.9003 0017984 154.0792 206.1322 14.76525386680205"}}, "geometry": {"type": "Point", "coordinates": [-118.94725062237562, 40.857795555648266]}}, {"type": "Feature", "properties": {"norad_id": 39160, "name": "VNREDSAT 1", "group": "resource", "lat": -19.72544616194757, "lon": 41.66651446188875, "alt_km": 682.6511900480054, "timestamp": "2025-12-09T09:46:47.303987+00:00", "meta": {"OBJECT_NAME": "VNREDSAT 1", "OBJECT_ID": "2013-021B", "EPOCH": "2025-12-08T22:23:43.499904", "MEAN_MOTION": 14.64913946, "ECCENTRICITY": 0.00013494, "INCLINATION": 97.9376, "RA_OF_ASC_NODE": 38.3413, "ARG_OF_PERICENTER": 79.6996, "MEAN_ANOMALY": 280.4359, "EPHEMERIS_TYPE": 0, "CLASSIFICATION_TYPE": "U", "NORAD_CAT_ID": 39160, "ELEMENT_SET_NO": 999, "REV_AT_EPOCH": 67243, "BSTAR": 0.00020330369, "MEAN_MOTION_DOT": 1.042e-05, "MEAN_MOTION_DDOT": 0}, "tle": {"line1": "1 39160U 13021B   25342.93314236  .00001042  00000+0  20330-3 0  9990", "line2": "2 39160  97.9376  38.3413 0001349  79.6996 280.4359 14.64913946672437"}}, "geometry": {"type": "Point", "coordinates": [41.66651446188875, -19.72544616194757]}}, {"type": "Feature", "properties": {"norad_id": 39227, "name": "ARIRANG-5 (KOMPSAT-5)", "group": "resource", "lat": -54.761808392224104, "lon": 178.67622873517956, "alt_km": 561.495455975326, "timestamp": "2025-12-09T09:46:47.303998+00:00", "meta": {"OBJECT_NAME": "ARIRANG-5 (KOMPSAT-5)", "OBJECT_ID": "2013-042A", "EPOCH": "2025-12-09T03:38:28.108608", "MEAN_MOTION": 15.04483704, "ECCENTRICITY": 0.0003953, "INCLINATION": 97.6148, "RA_OF_ASC_NODE": 167.5075, "ARG_OF_PERICENTER": 64.9508, "MEAN_ANOMALY": 295.2128, "EPHEMERIS_TYPE": 0, "CLASSIFICATION_TYPE": "U", "NORAD_CAT_ID": 39227, "ELEMENT_SET_NO": 999, "REV_AT_EPOCH": 67528, "BSTAR": 0.00019857, "MEAN_MOTION_DOT": 2.718e-05, "MEAN_MOTION_DDOT": 0}, "tle": {"line1": "1 39227U 13042A   25343.15171422  .00002718  00000+0  19857-3 0  9993", "line2": "2 39227  97.6148 167.5075 0003953  64.9508 295.2128 15.04483704675286"}}, "geometry": {"type": "Point", "coordinates": [178.67622873517956, -54.761808392224104]}}, {"type": "Feature", "properties": {"norad_id": 39418, "name": "SKYSAT-A", "group": "resource", "lat": -52.19826614310351, "lon": -155.9422857061009, "alt_km": 524.72282899316, "timestamp": "2025-12-09T09:46:47.304010+00:00", "meta": {"OBJECT_NAME": "SKYSAT-A", "OBJECT_ID": "2013-066C", "EPOCH": "2025-12-08T23:13:09.414912", "MEAN_MOTION": 15.11558162, "ECCENTRICITY": 0.00206861, "INCLINATION": 97.4108, "RA_OF_ASC_NODE": 33.2904, "ARG_OF_PERICENTER": 250.6647, "MEAN_ANOMALY": 109.2347, "EPHEMERIS_TYPE": 0, "CLASSIFICATION_TYPE": "U", "NORAD_CAT_ID": 39418, "ELEMENT_SET_NO": 999, "REV_AT_EPOCH": 65973, "BSTAR": 0.00030781706, "MEAN_MOTION_DOT": 5.183e-05, "MEAN_MOTION_DDOT": 0}, "tle": {"line1": "1 39418U 13066C   25342.96747008  .00005183  00000+0  30782-3 0  9997", "line2": "2 39418  97.4108  33.2904 0020686 250.6647 109.2347 15.11558162659730"}}, "geometry": {"type": "Point", "coordinates": [-155.9422857061009, -52.19826614310351]}}, {"type": "Feature", "properties": {"norad_id": 39419, "name": "DUBAISAT-2", "group": "resource", "lat": 53.21164107980563, "lon": -36.153377743367656, "alt_km": 535.2429406365254, "timestamp": "2025-12-09T09:46:47.304021+00:00", "meta": {"OBJECT_NAME": "DUBAISAT-2", "OBJECT_ID": "2013-066D", "EPOCH": "2025-12-08T22:23:48.118848", "MEAN_MOTION": 15.08296266, "ECCENTRICITY": 0.00110151, "INCLINATION": 97.4446, "RA_OF_ASC_NODE": 333.4577, "ARG_OF_PERICENTER": 334.4917, "MEAN_ANOMALY": 25.5767, "EPHEMERIS_TYPE": 0, "CLASSIFICATION_TYPE": "U", "NORAD_CAT_ID": 39419, "ELEMENT_SET_NO": 999, "REV_AT_EPOCH": 65769, "BSTAR": 0.00035687164, "MEAN_MOTION_DOT": 5.481e-05, "MEAN_MOTION_DDOT": 0}, "tle": {"line1": "1 39419U 13066D   25342.93319582  .00005481  00000+0  35687-3 0  9997", "line2": "2 39419  97.4446 333.4577 0011015 334.4917  25.5767 15.08296266657693"}}, "geometry": {"type": "Point", "coordinates": [-36.153377743367656, 53.21164107980563]}}]}